{"type": "FeatureCollection", "features": [ {"type": "Feature", "properties": {"norad_id": 29820, "name": "FENGYUN 1C DEB", "group": "fengyun-1c-debris", "lat": 40.72494658543399, "lon": -172.46254002215005, "alt_km": 873.4442909070585, "timestamp": "2025-12-18T23:35:49.331843+00:00", "meta": {"OBJECT_NAME": "FENGYUN 1C DEB", "OBJECT_ID": "1999-025DN", "EPOCH": "2025-12-18T14:58:54.215040", "MEAN_MOTION": 14.02616757, "ECCENTRICITY": 0.00723076, "INCLINATION": 98.832, "RA_OF_ASC_NODE": 359.4973, "ARG_OF_PERICENTER": 221.2269, "MEAN_ANOMALY": 266.594, "EPHEMERIS_TYPE": 0, "CLASSIFICATION_TYPE": "U", "NORAD_CAT_ID": 29820, "ELEMENT_SET_NO": 999, "REV_AT_EPOCH": 96642, "BSTAR": 0.00063910299, "MEAN_MOTION_DOT": 9.65e-06, "MEAN_MOTION_DDOT": 0}, "tle": {"line1": "1 29820U 99025DN  25352.62423860  .00000965  00000+0  63910-3 0  9995", "line2": "2 29820  98.8320 359.4973 0072307 221.2269 266.5940 14.02616757966424"}}, "geometry": {"type": "Point", "coordinates": [-172.46254002215005, 40.72494658543399]}}, {"type": "Feature", "properties": {"norad_id": 29821, "name": "FENGYUN 1C DEB", "group": "fengyun-1c-debris", "lat": 14.221729355647534, "lon": 45.64956839378915, "alt_km": 839.3434866976395, "timestamp": "2025-12-18T23:35:49.331854+00:00", "meta": {"OBJECT_NAME": "FENGYUN 1C DEB", "OBJECT_ID": "1999-025DP", "EPOCH": "2025-12-18T03:21:45.591264", "MEAN_MOTION": 14.11094027, "ECCENTRICITY": 0.03762314, "INCLINATION": 98.8735, "RA_OF_ASC_NODE": 47.0835, "ARG_OF_PERICENTER": 105.4357, "MEAN_ANOMALY": 312.8734, "EPHEMERIS_TYPE": 0, "CLASSIFICATION_TYPE": "U", "NORAD_CAT_ID": 29821, "ELEMENT_SET_NO": 999, "REV_AT_EPOCH": 96587, "BSTAR": 0.00036715786, "MEAN_MOTION_DOT": 1.239e-05, "MEAN_MOTION_DDOT": 0}, "tle": {"line1": "1 29821U 99025DP  25352.14011101  .00001239  00000+0  36716-3 0  9993", "line2": "2 29821  98.8735  47.0835 0376231 105.4357 312.8734 14.11094027965870"}}, "geometry": {"type": "Point", "coordinates": [45.64956839378915, 14.221729355647534]}}, {"type": "Feature", "properties": {"norad_id": 29827, "name": "FENGYUN 1C DEB", "group": "fengyun-1c-debris", "lat": -58.597614480036015, "lon": 149.66703465793356, "alt_km": 818.944747420689, "timestamp": "2025-12-18T23:35:49.331864+00:00", "meta": {"OBJECT_NAME": "FENGYUN 1C DEB", "OBJECT_ID": "1999-025DV", "EPOCH": "2025-12-18T12:56:22.375104", "MEAN_MOTION": 14.21696202, "ECCENTRICITY": 0.00247696, "INCLINATION": 98.6026, "RA_OF_ASC_NODE": 343.5919, "ARG_OF_PERICENTER": 305.241, "MEAN_ANOMALY": 183.1635, "EPHEMERIS_TYPE": 0, "CLASSIFICATION_TYPE": "U", "NORAD_CAT_ID": 29827, "ELEMENT_SET_NO": 999, "REV_AT_EPOCH": 97945, "BSTAR": 0.00027451882, "MEAN_MOTION_DOT": 5.62e-06, "MEAN_MOTION_DDOT": 0}, "tle": {"line1": "1 29827U 99025DV  25352.53914786  .00000562  00000+0  27452-3 0  9998", "line2": "2 29827  98.6026 343.5919 0024769 305.2410 183.1635 14.21696202979452"}}, "geometry": {"type": "Point", "coordinates": [149.66703465793356, -58.597614480036015]}}, {"type": "Feature", "properties": {"norad_id": 29828, "name": "FENGYUN 1C DEB", "group": "fengyun-1c-debris", "lat": -7.546981369634079, "lon": 39.44939137342834, "alt_km": 906.3748528482092, "timestamp": "2025-12-18T23:35:49.331875+00:00", "meta": {"OBJECT_NAME": "FENGYUN 1C DEB", "OBJECT_ID": "1999-025DW", "EPOCH": "2025-12-18T10:04:17.315040", "MEAN_MOTION": 14.08179494, "ECCENTRICITY": 0.00614551, "INCLINATION": 98.7698, "RA_OF_ASC_NODE": 37.7299, "ARG_OF_PERICENTER": 140.3392, "MEAN_ANOMALY": 237.1588, "EPHEMERIS_TYPE": 0, "CLASSIFICATION_TYPE": "U", "NORAD_CAT_ID": 29828, "ELEMENT_SET_NO": 999, "REV_AT_EPOCH": 96817, "BSTAR": 0.00078832385, "MEAN_MOTION_DOT": 1.326e-05, "MEAN_MOTION_DDOT": 0}, "tle": {"line1": "1 29828U 99025DW  25352.41964485  .00001326  00000+0  78832-3 0  9994", "line2": "2 29828  98.7698  37.7299 0061455 140.3392 237.1588 14.08179494968170"}}, "geometry": {"type": "Point", "coordinates": [39.44939137342834, -7.546981369634079]}}, {"type": "Feature", "properties": {"norad_id": 29832, "name": "FENGYUN 1C DEB", "group": "fengyun-1c-debris", "lat": 31.680412916938327, "lon": 99.27574585120998, "alt_km": 785.061213343688, "timestamp": "2025-12-18T23:35:49.331885+00:00", "meta": {"OBJECT_NAME": "FENGYUN 1C DEB", "OBJECT_ID": "1999-025EA", "EPOCH": "2025-12-18T13:33:21.743136", "MEAN_MOTION": 14.56566548, "ECCENTRICITY": 0.01921887, "INCLINATION": 98.8196, "RA_OF_ASC_NODE": 104.3315, "ARG_OF_PERICENTER": 265.2489, "MEAN_ANOMALY": 92.6738, "EPHEMERIS_TYPE": 0, "CLASSIFICATION_TYPE": "U", "NORAD_CAT_ID": 29832, "ELEMENT_SET_NO": 999, "REV_AT_EPOCH": 340, "BSTAR": 0.00013641823, "MEAN_MOTION_DOT": 7.14e-06, "MEAN_MOTION_DDOT": 0}, "tle": {"line1": "1 29832U 99025EA  25352.56483499  .00000714  00000+0  13642-3 0  9994", "line2": "2 29832  98.8196 104.3315 0192188 265.2489  92.6738 14.56566548  3401"}}, "geometry": {"type": "Point", "coordinates": [99.27574585120998, 31.680412916938327]}}, {"type": "Feature", "properties": {"norad_id": 29833, "name": "FENGYUN 1C DEB", "group": "fengyun-1c-debris", "lat": 80.30226990499692, "lon": -134.48152186114612, "alt_km": 636.0650318970766, "timestamp": "2025-12-18T23:35:49.331895+00:00", "meta": {"OBJECT_NAME": "FENGYUN 1C DEB", "OBJECT_ID": "1999-025EB", "EPOCH": "2025-12-18T05:27:32.702976", "MEAN_MOTION": 14.91225262, "ECCENTRICITY": 0.00887203, "INCLINATION": 99.0754, "RA_OF_ASC_NODE": 335.367, "ARG_OF_PERICENTER": 239.1816, "MEAN_ANOMALY": 120.0645, "EPHEMERIS_TYPE": 0, "CLASSIFICATION_TYPE": "U", "NORAD_CAT_ID": 29833, "ELEMENT_SET_NO": 999, "REV_AT_EPOCH": 653, "BSTAR": 0.00097052994, "MEAN_MOTION_DOT": 0.00010337, "MEAN_MOTION_DDOT": 0}, "tle": {"line1": "1 29833U 99025EB  25352.22746184  .00010337  00000+0  97053-3 0  9991", "line2": "2 29833  99.0754 335.3670 0088720 239.1816 120.0645 14.91225262  6539"}}, "geometry": {"type": "Point", "coordinates": [-134.48152186114612, 80.30226990499692]}}, {"type": "Feature", "properties": {"norad_id": 29835, "name": "FENGYUN 1C DEB", "group": "fengyun-1c-debris", "lat": -71.95383760529462, "lon": 150.9471431067702, "alt_km": 758.9472703670554, "timestamp": "2025-12-18T23:35:49.331906+00:00", "meta": {"OBJECT_NAME": "FENGYUN 1C DEB", "OBJECT_ID": "1999-025ED", "EPOCH": "2025-12-18T07:25:59.570400", "MEAN_MOTION": 14.43376974, "ECCENTRICITY": 0.01676613, "INCLINATION": 99.0259, "RA_OF_ASC_NODE": 121.0332, "ARG_OF_PERICENTER": 20.7531, "MEAN_ANOMALY": 9.3148, "EPHEMERIS_TYPE": 0, "CLASSIFICATION_TYPE": "U", "NORAD_CAT_ID": 29835, "ELEMENT_SET_NO": 999, "REV_AT_EPOCH": 99575, "BSTAR": 4.3798616e-05, "MEAN_MOTION_DOT": 1.17e-06, "MEAN_MOTION_DDOT": 0}, "tle": {"line1": "1 29835U 99025ED  25352.30971725  .00000117  00000+0  43799-4 0  9997", "line2": "2 29835  99.0259 121.0332 0167661  20.7531   9.3148 14.43376974995758"}}, "geometry": {"type": "Point", "coordinates": [150.9471431067702, -71.95383760529462]}}, {"type": "Feature", "properties": {"norad_id": 29836, "name": "FENGYUN 1C DEB", "group": "fengyun-1c-debris", "lat": 55.49141336866615, "lon": 76.70170662970077, "alt_km": 771.2875175477429, "timestamp": "2025-12-18T23:35:49.331916+00:00", "meta": {"OBJECT_NAME": "FENGYUN 1C DEB", "OBJECT_ID": "1999-025EE", "EPOCH": "2025-12-17T06:18:38.663136", "MEAN_MOTION": 14.54132486, "ECCENTRICITY": 0.01547668, "INCLINATION": 98.1881, "RA_OF_ASC_NODE": 87.1072, "ARG_OF_PERICENTER": 188.3982, "MEAN_ANOMALY": 229.382, "EPHEMERIS_TYPE": 0, "CLASSIFICATION_TYPE": "U", "NORAD_CAT_ID": 29836, "ELEMENT_SET_NO": 999, "REV_AT_EPOCH": 63621, "BSTAR": 0.00054925354, "MEAN_MOTION_DOT": 2.672e-05, "MEAN_MOTION_DDOT": 0}, "tle": {"line1": "1 29836U 99025EE  25351.26294749  .00002672  00000+0  54925-3 0  9996", "line2": "2 29836  98.1881  87.1072 0154766 188.3982 229.3820 14.54132486636210"}}, "geometry": {"type": "Point", "coordinates": [76.70170662970077, 55.49141336866615]}}, {"type": "Feature", "properties": {"norad_id": 29841, "name": "FENGYUN 1C DEB", "group": "fengyun-1c-debris", "lat": -76.52055306627942, "lon": 80.01993967014377, "alt_km": 661.1588956300993, "timestamp": "2025-12-18T23:35:49.331926+00:00", "meta": {"OBJECT_NAME": "FENGYUN 1C DEB", "OBJECT_ID": "1999-025EK", "EPOCH": "2025-12-18T09:39:08.223264", "MEAN_MOTION": 14.46501588, "ECCENTRICITY": 0.02001019, "INCLINATION": 98.8192, "RA_OF_ASC_NODE": 299.7833, "ARG_OF_PERICENTER": 316.6559, "MEAN_ANOMALY": 161.0319, "EPHEMERIS_TYPE": 0, "CLASSIFICATION_TYPE": "U", "NORAD_CAT_ID": 29841, "ELEMENT_SET_NO": 999, "REV_AT_EPOCH": 99405, "BSTAR": 0.00041321043, "MEAN_MOTION_DOT": 1.848e-05, "MEAN_MOTION_DDOT": 0}, "tle": {"line1": "1 29841U 99025EK  25352.40217851  .00001848  00000+0  41321-3 0  9998", "line2": "2 29841  98.8192 299.7833 0200101 316.6559 161.0319 14.46501588994053"}}, "geometry": {"type": "Point", "coordinates": [80.01993967014377, -76.52055306627942]}}, {"type": "Feature", "properties": {"norad_id": 29842, "name": "FENGYUN 1C DEB", "group": "fengyun-1c-debris", "lat": -77.49941361841445, "lon": -142.12315597392984, "alt_km": 730.8823035705673, "timestamp": "2025-12-18T23:35:49.331936+00:00", "meta": {"OBJECT_NAME": "FENGYUN 1C DEB", "OBJECT_ID": "1999-025EL", "EPOCH": "2025-12-18T04:35:20.664960", "MEAN_MOTION": 14.60324506, "ECCENTRICITY": 0.01090836, "INCLINATION": 98.5695, "RA_OF_ASC_NODE": 79.9127, "ARG_OF_PERICENTER": 148.6488, "MEAN_ANOMALY": 269.825, "EPHEMERIS_TYPE": 0, "CLASSIFICATION_TYPE": "U", "NORAD_CAT_ID": 29842, "ELEMENT_SET_NO": 999, "REV_AT_EPOCH": 99433, "BSTAR": 0.0010097942, "MEAN_MOTION_DOT": 5.254e-05, "MEAN_MOTION_DDOT": 0}, "tle": {"line1": "1 29842U 99025EL  25352.19121140  .00005254  00000+0  10098-2 0  9991", "line2": "2 29842  98.5695  79.9127 0109083 148.6488 269.8250 14.60324506994335"}}, "geometry": {"type": "Point", "coordinates": [-142.12315597392984, -77.49941361841445]}}]}